{"type": "FeatureCollection", "features": [ {"type": "Feature", "properties": {"norad_id": 37216, "name": "COSMO-SKYMED 4", "group": "resource", "lat": 15.56225477394125, "lon": 166.9561992696618, "alt_km": 623.0746502799439, "timestamp": "2025-12-13T20:38:50.651645+00:00", "meta": {"OBJECT_NAME": "COSMO-SKYMED 4", "OBJECT_ID": "2010-060A", "EPOCH": "2025-12-13T14:05:44.384928", "MEAN_MOTION": 14.82145679, "ECCENTRICITY": 0.0001457, "INCLINATION": 97.8809, "RA_OF_ASC_NODE": 168.8982, "ARG_OF_PERICENTER": 91.0781, "MEAN_ANOMALY": 269.0599, "EPHEMERIS_TYPE": 0, "CLASSIFICATION_TYPE": "U", "NORAD_CAT_ID": 37216, "ELEMENT_SET_NO": 999, "REV_AT_EPOCH": 81707, "BSTAR": 0.00010934, "MEAN_MOTION_DOT": 8.18e-06, "MEAN_MOTION_DDOT": 0}, "tle": {"line1": "1 37216U 10060A   25347.58731927  .00000818  00000+0  10934-3 0  9995", "line2": "2 37216  97.8809 168.8982 0001457  91.0781 269.0599 14.82145679817077"}}, "geometry": {"type": "Point", "coordinates": [166.9561992696618, 15.56225477394125]}}, {"type": "Feature", "properties": {"norad_id": 37387, "name": "RESOURCESAT-2", "group": "resource", "lat": 78.7976899968354, "lon": -77.23423922201742, "alt_km": 810.091866798608, "timestamp": "2025-12-13T20:38:50.651655+00:00", "meta": {"OBJECT_NAME": "RESOURCESAT-2", "OBJECT_ID": "2011-015A", "EPOCH": "2025-12-13T06:40:48.010944", "MEAN_MOTION": 14.21597717, "ECCENTRICITY": 0.00064137, "INCLINATION": 98.7878, "RA_OF_ASC_NODE": 50.8278, "ARG_OF_PERICENTER": 41.3471, "MEAN_ANOMALY": 318.819, "EPHEMERIS_TYPE": 0, "CLASSIFICATION_TYPE": "U", "NORAD_CAT_ID": 37387, "ELEMENT_SET_NO": 999, "REV_AT_EPOCH": 75976, "BSTAR": 0.00014127722, "MEAN_MOTION_DOT": 2.65e-06, "MEAN_MOTION_DDOT": 0}, "tle": {"line1": "1 37387U 11015A   25347.27833346  .00000265  00000+0  14128-3 0  9994", "line2": "2 37387  98.7878  50.8278 0006413  41.3471 318.8190 14.21597717759769"}}, "geometry": {"type": "Point", "coordinates": [-77.23423922201742, 78.7976899968354]}}, {"type": "Feature", "properties": {"norad_id": 37781, "name": "HAIYANG-2A", "group": "resource", "lat": -27.209242655252464, "lon": -6.369657371288863, "alt_km": 974.0403934455635, "timestamp": "2025-12-13T20:38:50.651666+00:00", "meta": {"OBJECT_NAME": "HAIYANG-2A", "OBJECT_ID": "2011-043A", "EPOCH": "2025-12-13T06:50:55.623264", "MEAN_MOTION": 13.78834391, "ECCENTRICITY": 0.00016501, "INCLINATION": 99.3383, "RA_OF_ASC_NODE": 348.2114, "ARG_OF_PERICENTER": 82.4238, "MEAN_ANOMALY": 277.7101, "EPHEMERIS_TYPE": 0, "CLASSIFICATION_TYPE": "U", "NORAD_CAT_ID": 37781, "ELEMENT_SET_NO": 999, "REV_AT_EPOCH": 72106, "BSTAR": -0.00015480109, "MEAN_MOTION_DOT": -2.02e-06, "MEAN_MOTION_DDOT": 0}, "tle": {"line1": "1 37781U 11043A   25347.28536601 -.00000202  00000+0 -15480-3 0  9993", "line2": "2 37781  99.3383 348.2114 0001650  82.4238 277.7101 13.78834391721063"}}, "geometry": {"type": "Point", "coordinates": [-6.369657371288863, -27.209242655252464]}}, {"type": "Feature", "properties": {"norad_id": 37791, "name": "RASAT", "group": "resource", "lat": 81.698894376419, "lon": 0.7501198979843641, "alt_km": 646.4610801943281, "timestamp": "2025-12-13T20:38:50.651676+00:00", "meta": {"OBJECT_NAME": "RASAT", "OBJECT_ID": "2011-044D", "EPOCH": "2025-12-13T07:29:13.558272", "MEAN_MOTION": 14.67912767, "ECCENTRICITY": 0.00218734, "INCLINATION": 98.0645, "RA_OF_ASC_NODE": 76.5607, "ARG_OF_PERICENTER": 63.3939, "MEAN_ANOMALY": 8.5557, "EPHEMERIS_TYPE": 0, "CLASSIFICATION_TYPE": "U", "NORAD_CAT_ID": 37791, "ELEMENT_SET_NO": 999, "REV_AT_EPOCH": 76591, "BSTAR": 0.00025779547, "MEAN_MOTION_DOT": 1.431e-05, "MEAN_MOTION_DDOT": 0}, "tle": {"line1": "1 37791U 11044D   25347.31196248  .00001431  00000+0  25780-3 0  9995", "line2": "2 37791  98.0645  76.5607 0021873  63.3939   8.5557 14.67912767765914"}}, "geometry": {"type": "Point", "coordinates": [0.7501198979843641, 81.698894376419]}}, {"type": "Feature", "properties": {"norad_id": 37841, "name": "SRMSAT", "group": "resource", "lat": 7.011221676246331, "lon": 120.966462259468, "alt_km": 846.0561791851151, "timestamp": "2025-12-13T20:38:50.651687+00:00", "meta": {"OBJECT_NAME": "SRMSAT", "OBJECT_ID": "2011-058D", "EPOCH": "2025-12-13T00:55:22.594944", "MEAN_MOTION": 14.11511594, "ECCENTRICITY": 0.00117679, "INCLINATION": 19.971, "RA_OF_ASC_NODE": 106.1426, "ARG_OF_PERICENTER": 316.7615, "MEAN_ANOMALY": 198.8861, "EPHEMERIS_TYPE": 0, "CLASSIFICATION_TYPE": "U", "NORAD_CAT_ID": 37841, "ELEMENT_SET_NO": 999, "REV_AT_EPOCH": 73148, "BSTAR": 0.00013117397, "MEAN_MOTION_DOT": 5.06e-06, "MEAN_MOTION_DDOT": 0}, "tle": {"line1": "1 37841U 11058D   25347.03845596  .00000506  00000+0  13117-3 0  9995", "line2": "2 37841  19.9710 106.1426 0011767 316.7615 198.8861 14.11511594731489"}}, "geometry": {"type": "Point", "coordinates": [120.966462259468, 7.011221676246331]}}, {"type": "Feature", "properties": {"norad_id": 38012, "name": "PLEIADES 1A", "group": "resource", "lat": -25.26699105650226, "lon": -123.28277184525756, "alt_km": 704.0477335468058, "timestamp": "2025-12-13T20:38:50.651697+00:00", "meta": {"OBJECT_NAME": "PLEIADES 1A", "OBJECT_ID": "2011-076F", "EPOCH": "2025-12-13T08:31:01.282944", "MEAN_MOTION": 14.58563252, "ECCENTRICITY": 0.00012967, "INCLINATION": 98.1819, "RA_OF_ASC_NODE": 60.1135, "ARG_OF_PERICENTER": 74.3067, "MEAN_ANOMALY": 358.7484, "EPHEMERIS_TYPE": 0, "CLASSIFICATION_TYPE": "U", "NORAD_CAT_ID": 38012, "ELEMENT_SET_NO": 999, "REV_AT_EPOCH": 74490, "BSTAR": 0.00019489246, "MEAN_MOTION_DOT": 8.61e-06, "MEAN_MOTION_DDOT": 0}, "tle": {"line1": "1 38012U 11076F   25347.35487596  .00000861  00000+0  19489-3 0  9995", "line2": "2 38012  98.1819  60.1135 0001296  74.3067 358.7484 14.58563252744907"}}, "geometry": {"type": "Point", "coordinates": [-123.28277184525756, -25.26699105650226]}}, {"type": "Feature", "properties": {"norad_id": 38038, "name": "ZIYUAN 1-02C (ZY 1-02C)", "group": "resource", "lat": 29.915949718455945, "lon": 48.955961284712416, "alt_km": 764.8262563865001, "timestamp": "2025-12-13T20:38:50.651708+00:00", "meta": {"OBJECT_NAME": "ZIYUAN 1-02C (ZY 1-02C)", "OBJECT_ID": "2011-079A", "EPOCH": "2025-12-13T07:30:03.259008", "MEAN_MOTION": 14.38014031, "ECCENTRICITY": 0.00072061, "INCLINATION": 98.4329, "RA_OF_ASC_NODE": 53.3151, "ARG_OF_PERICENTER": 136.8031, "MEAN_ANOMALY": 299.5609, "EPHEMERIS_TYPE": 0, "CLASSIFICATION_TYPE": "U", "NORAD_CAT_ID": 38038, "ELEMENT_SET_NO": 999, "REV_AT_EPOCH": 73249, "BSTAR": 0.00034544416, "MEAN_MOTION_DOT": 1.002e-05, "MEAN_MOTION_DDOT": 0}, "tle": {"line1": "1 38038U 11079A   25347.31253772  .00001002  00000+0  34544-3 0  9996", "line2": "2 38038  98.4329  53.3151 0007206 136.8031 299.5609 14.38014031732494"}}, "geometry": {"type": "Point", "coordinates": [48.955961284712416, 29.915949718455945]}}, {"type": "Feature", "properties": {"norad_id": 38046, "name": "ZIYUAN 3-1 (ZY 3-1)", "group": "resource", "lat": -7.961694792376903, "lon": 55.31373512349098, "alt_km": 365.2312226442664, "timestamp": "2025-12-13T20:38:50.651718+00:00", "meta": {"OBJECT_NAME": "ZIYUAN 3-1 (ZY 3-1)", "OBJECT_ID": "2012-001A", "EPOCH": "2025-12-13T06:54:12.337056", "MEAN_MOTION": 15.68694418, "ECCENTRICITY": 0.00017246, "INCLINATION": 97.1754, "RA_OF_ASC_NODE": 53.7178, "ARG_OF_PERICENTER": 350.3429, "MEAN_ANOMALY": 9.7799, "EPHEMERIS_TYPE": 0, "CLASSIFICATION_TYPE": "U", "NORAD_CAT_ID": 38046, "ELEMENT_SET_NO": 999, "REV_AT_EPOCH": 77505, "BSTAR": 0.00096345471, "MEAN_MOTION_DOT": 0.0011072, "MEAN_MOTION_DDOT": 0}, "tle": {"line1": "1 38046U 12001A   25347.28764279  .00110720  00000+0  96345-3 0  9991", "line2": "2 38046  97.1754  53.7178 0001724 350.3429   9.7799 15.68694418775054"}}, "geometry": {"type": "Point", "coordinates": [55.31373512349098, -7.961694792376903]}}, {"type": "Feature", "properties": {"norad_id": 38338, "name": "ARIRANG-3 (KOMPSAT-3)", "group": "resource", "lat": 63.136059893078055, "lon": 139.27569798076297, "alt_km": 684.3680905835563, "timestamp": "2025-12-13T20:38:50.651729+00:00", "meta": {"OBJECT_NAME": "ARIRANG-3 (KOMPSAT-3)", "OBJECT_ID": "2012-025B", "EPOCH": "2025-12-13T06:58:39.047808", "MEAN_MOTION": 14.61713927, "ECCENTRICITY": 0.00053235, "INCLINATION": 98.3322, "RA_OF_ASC_NODE": 301.8842, "ARG_OF_PERICENTER": 337.066, "MEAN_ANOMALY": 23.0302, "EPHEMERIS_TYPE": 0, "CLASSIFICATION_TYPE": "U", "NORAD_CAT_ID": 38338, "ELEMENT_SET_NO": 999, "REV_AT_EPOCH": 72418, "BSTAR": 0.00019740491, "MEAN_MOTION_DOT": 9.35e-06, "MEAN_MOTION_DDOT": 0}, "tle": {"line1": "1 38338U 12025B   25347.29072972  .00000935  00000+0  19740-3 0  9994", "line2": "2 38338  98.3322 301.8842 0005323 337.0660  23.0302 14.61713927724181"}}, "geometry": {"type": "Point", "coordinates": [139.27569798076297, 63.136059893078055]}}, {"type": "Feature", "properties": {"norad_id": 38709, "name": "EXACTVIEW-1 (ADS-1B)", "group": "resource", "lat": -34.536518390336425, "lon": 102.50974368481792, "alt_km": 808.0853760961727, "timestamp": "2025-12-13T20:38:50.651739+00:00", "meta": {"OBJECT_NAME": "EXACTVIEW-1 (ADS-1B)", "OBJECT_ID": "2012-039C", "EPOCH": "2025-12-13T07:19:44.395680", "MEAN_MOTION": 14.24908543, "ECCENTRICITY": 0.0010645, "INCLINATION": 98.9636, "RA_OF_ASC_NODE": 95.7073, "ARG_OF_PERICENTER": 352.5587, "MEAN_ANOMALY": 7.5432, "EPHEMERIS_TYPE": 0, "CLASSIFICATION_TYPE": "U", "NORAD_CAT_ID": 38709, "ELEMENT_SET_NO": 999, "REV_AT_EPOCH": 69623, "BSTAR": 0.00013384563, "MEAN_MOTION_DOT": 2.66e-06, "MEAN_MOTION_DDOT": 0}, "tle": {"line1": "1 38709U 12039C   25347.30537495  .00000266  00000+0  13385-3 0  9995", "line2": "2 38709  98.9636  95.7073 0010645 352.5587   7.5432 14.24908543696239"}}, "geometry": {"type": "Point", "coordinates": [102.50974368481792, -34.536518390336425]}}]}